{
    "links": {
        "self": "http://www.neowsapp.com/rest/v1/neo/3779470?api_key=iIulBulltgU6a56xZRHN4H3l9WmuAYTsLGpBGhQ2"
    },
    "id": "3779470",
    "neo_reference_id": "3779470",
    "name": "(2017 OG68)",
    "designation": "2017 OG68",
    "nasa_jpl_url": "http://ssd.jpl.nasa.gov/sbdb.cgi?sstr=3779470",
    "absolute_magnitude_h": 21.7,
    "estimated_diameter": {
        "kilometers": {
            "estimated_diameter_min": 0.1214940408,
            "estimated_diameter_max": 0.2716689341
        },
        "meters": {
            "estimated_diameter_min": 121.4940407996,
            "estimated_diameter_max": 271.6689340891
        },
        "miles": {
            "estimated_diameter_min": 0.0754928736,
            "estimated_diameter_max": 0.1688071972
        },
        "feet": {
            "estimated_diameter_min": 398.6025088171,
            "estimated_diameter_max": 891.3023057169
        }
    },
    "is_potentially_hazardous_asteroid": false,
    "close_approach_data": [
        {
            "close_approach_date": "2017-09-24",
            "close_approach_date_full": "2017-Sep-24 08:23",
            "epoch_date_close_approach": 1506241380000,
            "relative_velocity": {
                "kilometers_per_second": "3.2315868965",
                "kilometers_per_hour": "11633.7128272745",
                "miles_per_hour": "7228.7367287029"
            },
            "miss_distance": {
                "astronomical": "0.2842780272",
                "lunar": "110.5841525808",
                "kilometers": "42527387.356922064",
                "miles": "26425293.1464659232"
            },
            "orbiting_body": "Earth"
        },
        {
            "close_approach_date": "2095-10-01",
            "close_approach_date_full": "2095-Oct-01 14:23",
            "epoch_date_close_approach": 3968317380000,
            "relative_velocity": {
                "kilometers_per_second": "3.6951223085",
                "kilometers_per_hour": "13302.4403105529",
                "miles_per_hour": "8265.6190918544"
            },
            "miss_distance": {
                "astronomical": "0.2869645012",
                "lunar": "111.6291909668",
                "kilometers": "42929278.145132444",
                "miles": "26675016.5024339672"
            },
            "orbiting_body": "Earth"
        },
        {
            "close_approach_date": "2158-04-07",
            "close_approach_date_full": "2158-Apr-07 23:21",
            "epoch_date_close_approach": 5941120860000,
            "relative_velocity": {
                "kilometers_per_second": "7.9842974573",
                "kilometers_per_hour": "28743.4708462914",
                "miles_per_hour": "17860.0749822414"
            },
            "miss_distance": {
                "astronomical": "0.0561960345",
                "lunar": "21.8602574205",
                "kilometers": "8406807.063646515",
                "miles": "5223747.680951307"
            },
            "orbiting_body": "Mars"
        }
    ],
    "orbital_data": {
        "orbit_id": "15",
        "orbit_determination_date": "2018-02-10 07:09:04",
        "first_observation_date": "2017-07-26",
        "last_observation_date": "2017-11-18",
        "data_arc_in_days": 115,
        "observations_used": 68,
        "orbit_uncertainty": "5",
        "minimum_orbit_intersection": ".279099",
        "jupiter_tisserand_invariant": "3.299",
        "epoch_osculation": "2459000.5",
        "eccentricity": ".486144738401048",
        "semi_major_axis": "2.482769685377669",
        "inclination": "4.666884966783608",
        "ascending_node_longitude": "218.9096786841636",
        "orbital_period": "1428.904085246449",
        "perihelion_distance": "1.27578426616969",
        "perihelion_argument": "144.7425518449651",
        "aphelion_distance": "3.689755104585648",
        "perihelion_time": "2459455.089669059201",
        "mean_anomaly": "245.4700727984226",
        "mean_motion": ".2519413330236994",
        "equinox": "J2000",
        "orbit_class": {
            "orbit_class_type": "AMO",
            "orbit_class_description": "Near-Earth asteroid orbits similar to that of 1221 Amor",
            "orbit_class_range": "1.017 AU < q (perihelion) < 1.3 AU"
        }
    },
    "is_sentry_object": false
}